[{"OBJECT_NAME":"KUZGTU 1 (RS47S)","OBJECT_ID":"2023-091AV","EPOCH":"2026-03-09T22:22:51.965760","MEAN_MOTION":15.27481352,"ECCENTRICITY":0.0012896,"INCLINATION":97.5178,"RA_OF_ASC_NODE":132.5224,"ARG_OF_PERICENTER":89.3666,"MEAN_ANOMALY":270.9051,"EPHEMERIS_TYPE":0,"CLASSIFICATION_TYPE":"U","NORAD_CAT_ID":57217,"ELEMENT_SET_NO":999,"REV_AT_EPOCH":14921,"BSTAR":0.00057711473,"MEAN_MOTION_DOT":0.00015496,"MEAN_MOTION_DDOT":0},{"OBJECT_NAME":"STARLINK-31252","OBJECT_ID":"2024-041K","EPOCH":"2026-03-09T11:38:42.256320","MEAN_MOTION":15.2756861,"ECCENTRICITY":9.925e-5,"INCLINATION":43.0013,"RA_OF_ASC_NODE":228.669,"ARG_OF_PERICENTER":273.3131,"MEAN_ANOMALY":86.7607,"EPHEMERIS_TYPE":0,"CLASSIFICATION_TYPE":"U","NORAD_CAT_ID":59083,"ELEMENT_SET_NO":999,"REV_AT_EPOCH":11524,"BSTAR":-2.6340129e-5,"MEAN_MOTION_DOT":-9.86e-6,"MEAN_MOTION_DDOT":0}]
